{
  "type": "FeatureCollection",
  "features": [
    {
      "type": "Feature",
      "properties": {
        "norad_id": 66815,
        "name": "STARLINK-35985",
        "group": "last-30-days",
        "lat": -42.78891158535271,
        "lon": 115.4875227192466,
        "alt_km": 367.88660507187524,
        "timestamp": "2025-12-19T06:59:42.650867+00:00",
        "meta_object_name": "STARLINK-35985",
        "meta_object_id": "2025-278AA",
        "meta_epoch": "2025-12-19T00:00:02.000160",
        "meta_mean_motion": 15.68862705,
        "meta_eccentricity": 0.00015235,
        "meta_inclination": 42.9992,
        "meta_ra_of_asc_node": 213.831,
        "meta_arg_of_pericenter": 274.9083,
        "meta_mean_anomaly": 142.8528,
        "meta_ephemeris_type": 0,
        "meta_classification_type": "U",
        "meta_norad_cat_id": 66815,
        "meta_element_set_no": 999,
        "meta_rev_at_epoch": 405,
        "meta_bstar": -0.018156785,
        "meta_mean_motion_dot": -0.01903136,
        "meta_mean_motion_ddot": 0,
        "tle_line1": "1 66815U 25278AA  25353.00002315 -.01903136  00000+0 -18157-1 0  9996",
        "tle_line2": "2 66815  42.9992 213.8310 0001523 274.9083 142.8528 15.68862705  4052"
      },
      "geometry": {
        "type": "Point",
        "coordinates": [
          115.4875227192466,
          -42.78891158535271
        ]
      }
    },
    {
      "type": "Feature",
      "properties": {
        "norad_id": 66816,
        "name": "STARLINK-36098",
        "group": "last-30-days",
        "lat": -41.727288352866196,
        "lon": 105.25299015569547,
        "alt_km": 367.9062381339554,
        "timestamp": "2025-12-19T06:59:42.650879+00:00",
        "meta_object_name": "STARLINK-36098",
        "meta_object_id": "2025-278AB",
        "meta_epoch": "2025-12-19T00:00:02.000160",
        "meta_mean_motion": 15.68862918,
        "meta_eccentricity": 0.00015066,
        "meta_inclination": 42.9993,
        "meta_ra_of_asc_node": 213.8512,
        "meta_arg_of_pericenter": 275.7038,
        "meta_mean_anomaly": 134.3892,
        "meta_ephemeris_type": 0,
        "meta_classification_type": "U",
        "meta_norad_cat_id": 66816,
        "meta_element_set_no": 999,
        "meta_rev_at_epoch": 380,
        "meta_bstar": -0.018162044,
        "meta_mean_motion_dot": -0.01903627,
        "meta_mean_motion_ddot": 0,
        "tle_line1": "1 66816U 25278AB  25353.00002315 -.01903627  00000+0 -18162-1 0  9998",
        "tle_line2": "2 66816  42.9993 213.8512 0001506 275.7038 134.3892 15.68862918  3806"
      },
      "geometry": {
        "type": "Point",
        "coordinates": [
          105.25299015569547,
          -41.727288352866196
        ]
      }
    },
    {
      "type": "Feature",
      "properties": {
        "norad_id": 66817,
        "name": "STARLINK-35995",
        "group": "last-30-days",
        "lat": -42.3724118883829,
        "lon": 110.32630541258648,
        "alt_km": 367.84809319218493,
        "timestamp": "2025-12-19T06:59:42.650889+00:00",
        "meta_object_name": "STARLINK-35995",
        "meta_object_id": "2025-278AC",
        "meta_epoch": "2025-12-19T00:00:02.000160",
        "meta_mean_motion": 15.68861274,
        "meta_eccentricity": 0.00015878,
        "meta_inclination": 42.9993,
        "meta_ra_of_asc_node": 213.8413,
        "meta_arg_of_pericenter": 274.877,
        "meta_mean_anomaly": 139.0504,
        "meta_ephemeris_type": 0,
        "meta_classification_type": "U",
        "meta_norad_cat_id": 66817,
        "meta_element_set_no": 999,
        "meta_rev_at_epoch": 396,
        "meta_bstar": -0.018140914,
        "meta_mean_motion_dot": -0.01901608,
        "meta_mean_motion_ddot": 0,
        "tle_line1": "1 66817U 25278AC  25353.00002315 -.01901608  00000+0 -18141-1 0  9993",
        "tle_line2": "2 66817  42.9993 213.8413 0001587 274.8770 139.0504 15.68861274  3962"
      },
      "geometry": {
        "type": "Point",
        "coordinates": [
          110.32630541258648,
          -42.3724118883829
        ]
      }
    },
    {
      "type": "Feature",
      "properties": {
        "norad_id": 66818,
        "name": "STARLINK-35994",
        "group": "last-30-days",
        "lat": -42.07788396903218,
        "lon": 107.77618892479482,
        "alt_km": 367.932065699576,
        "timestamp": "2025-12-19T06:59:42.650901+00:00",
        "meta_object_name": "STARLINK-35994",
        "meta_object_id": "2025-278AD",
        "meta_epoch": "2025-12-19T00:00:02.000160",
        "meta_mean_motion": 15.68868729,
        "meta_eccentricity": 0.00014681,
        "meta_inclination": 42.9994,
        "meta_ra_of_asc_node": 213.8466,
        "meta_arg_of_pericenter": 276.6862,
        "meta_mean_anomaly": 135.3189,
        "meta_ephemeris_type": 0,
        "meta_classification_type": "U",
        "meta_norad_cat_id": 66818,
        "meta_element_set_no": 999,
        "meta_rev_at_epoch": 396,
        "meta_bstar": -0.018211531,
        "meta_mean_motion_dot": -0.01908605,
        "meta_mean_motion_ddot": 0,
        "tle_line1": "1 66818U 25278AD  25353.00002315 -.01908605  00000+0 -18212-1 0  9997",
        "tle_line2": "2 66818  42.9994 213.8466 0001468 276.6862 135.3189 15.68868729  3962"
      },
      "geometry": {
        "type": "Point",
        "coordinates": [
          107.77618892479482,
          -42.07788396903218
        ]
      }
    },
    {
      "type": "Feature",
      "properties": {
        "norad_id": 66819,
        "name": "STARLINK-35989",
        "group": "last-30-days",
        "lat": -42.609139070007096,
        "lon": 112.89871301027587,
        "alt_km": 367.7811956038622,
        "timestamp": "2025-12-19T06:59:42.650911+00:00",
        "meta_object_name": "STARLINK-35989",
        "meta_object_id": "2025-278AE",
        "meta_epoch": "2025-12-18T22:00:00.999936",
        "meta_mean_motion": 15.69219965,
        "meta_eccentricity": 0.00016093,
        "meta_inclination": 42.9986,
        "meta_ra_of_asc_node": 214.3373,
        "meta_arg_of_pericenter": 264.6326,
        "meta_mean_anomaly": 39.8622,
        "meta_ephemeris_type": 0,
        "meta_classification_type": "U",
        "meta_norad_cat_id": 66819,
        "meta_element_set_no": 999,
        "meta_rev_at_epoch": 395,
        "meta_bstar": -0.018133767,
        "meta_mean_motion_dot": -0.01926373,
        "meta_mean_motion_ddot": 0,
        "tle_line1": "1 66819U 25278AE  25352.91667824 -.01926373  00000+0 -18134-1 0  9994",
        "tle_line2": "2 66819  42.9986 214.3373 0001609 264.6326  39.8622 15.69219965  3958"
      },
      "geometry": {
        "type": "Point",
        "coordinates": [
          112.89871301027587,
          -42.609139070007096
        ]
      }
    },
    {
      "type": "Feature",
      "properties": {
        "norad_id": 66820,
        "name": "KOMPSAT-7",
        "group": "last-30-days",
        "lat": 56.33267731226111,
        "lon": -72.59086690747078,
        "alt_km": 567.4931335828724,
        "timestamp": "2025-12-19T06:59:42.650921+00:00",
        "meta_object_name": "KOMPSAT-7",
        "meta_object_id": "2025-279A",
        "meta_epoch": "2025-12-15T00:17:19.244256",
        "meta_mean_motion": 15.0015594,
        "meta_eccentricity": 0.00093948,
        "meta_inclination": 97.641,
        "meta_ra_of_asc_node": 294.8339,
        "meta_arg_of_pericenter": 252.0315,
        "meta_mean_anomaly": 107.9885,
        "meta_ephemeris_type": 0,
        "meta_classification_type": "U",
        "meta_norad_cat_id": 66820,
        "meta_element_set_no": 999,
        "meta_rev_at_epoch": 199,
        "meta_bstar": 0.00025788518,
        "meta_mean_motion_dot": 3.163e-05,
        "meta_mean_motion_ddot": 0,
        "tle_line1": "1 66820U 25279A   25349.01202829  .00003163  00000+0  25789-3 0  9990",
        "tle_line2": "2 66820  97.6410 294.8339 0009394 252.0315 107.9885 15.00155940  1999"
      },
      "geometry": {
        "type": "Point",
        "coordinates": [
          -72.59086690747078,
          56.33267731226111
        ]
      }
    },
    {
      "type": "Feature",
      "properties": {
        "norad_id": 66821,
        "name": "STARLINK-35966",
        "group": "last-30-days",
        "lat": -64.35704907575234,
        "lon": 49.830167735575465,
        "alt_km": 409.363122737509,
        "timestamp": "2025-12-19T06:59:42.650932+00:00",
        "meta_object_name": "STARLINK-35966",
        "meta_object_id": "2025-280A",
        "meta_epoch": "2025-12-18T22:00:00.999936",
        "meta_mean_motion": 15.55831862,
        "meta_eccentricity": 0.0003634,
        "meta_inclination": 69.9997,
        "meta_ra_of_asc_node": 181.5048,
        "meta_arg_of_pericenter": 277.2899,
        "meta_mean_anomaly": 38.9434,
        "meta_ephemeris_type": 0,
        "meta_classification_type": "U",
        "meta_norad_cat_id": 66821,
        "meta_element_set_no": 999,
        "meta_rev_at_epoch": 389,
        "meta_bstar": -0.034424397,
        "meta_mean_motion_dot": -0.02125085,
        "meta_mean_motion_ddot": 0,
        "tle_line1": "1 66821U 25280A   25352.91667824 -.02125085  00000+0 -34424-1 0  9992",
        "tle_line2": "2 66821  69.9997 181.5048 0003634 277.2899  38.9434 15.55831862  3896"
      },
      "geometry": {
        "type": "Point",
        "coordinates": [
          49.830167735575465,
          -64.35704907575234
        ]
      }
    }
  ]
}